[{"OBJECT_NAME":"STARLINK-33862","OBJECT_ID":"2025-087N","EPOCH":"2025-09-01T13:28:52.520736","MEAN_MOTION":15.30209476,"ECCENTRICITY":0.00014333,"INCLINATION":53.1632,"RA_OF_ASC_NODE":18.0121,"ARG_OF_PERICENTER":86.4847,"MEAN_ANOMALY":273.6318,"EPHEMERIS_TYPE":0,"CLASSIFICATION_TYPE":"U","NORAD_CAT_ID":63709,"ELEMENT_SET_NO":999,"REV_AT_EPOCH":2024,"BSTAR":0.001109562,"MEAN_MOTION_DOT":0.00032657,"MEAN_MOTION_DDOT":0},{"OBJECT_NAME":"STARLINK-33920","OBJECT_ID":"2025-087P","EPOCH":"2025-09-01T14:02:18.741696","MEAN_MOTION":15.3021312,"ECCENTRICITY":0.00011621,"INCLINATION":53.1618,"RA_OF_ASC_NODE":18.1606,"ARG_OF_PERICENTER":69.5707,"MEAN_ANOMALY":290.5419,"EPHEMERIS_TYPE":0,"CLASSIFICATION_TYPE":"U","NORAD_CAT_ID":63710,"ELEMENT_SET_NO":999,"REV_AT_EPOCH":2024,"BSTAR":0.0010844226,"MEAN_MOTION_DOT":0.00031909,"MEAN_MOTION_DDOT":0},{"OBJECT_NAME":"STARLINK-33580","OBJECT_ID":"2025-087Q","EPOCH":"2025-09-01T14:15:58.984416","MEAN_MOTION":15.30180513,"ECCENTRICITY":0.00013255,"INCLINATION":53.1604,"RA_OF_ASC_NODE":18.2184,"ARG_OF_PERICENTER":84.6227,"MEAN_ANOMALY":275.4925,"EPHEMERIS_TYPE":0,"CLASSIFICATION_TYPE":"U","NORAD_CAT_ID":63711,"ELEMENT_SET_NO":999,"REV_AT_EPOCH":2024,"BSTAR":0.0021660234,"MEAN_MOTION_DOT":0.0006431,"MEAN_MOTION_DDOT":0},{"OBJECT_NAME":"STARLINK-33783","OBJECT_ID":"2025-087R","EPOCH":"2025-09-01T13:59:16.061856","MEAN_MOTION":15.30202017,"ECCENTRICITY":0.00012293,"INCLINATION":53.1615,"RA_OF_ASC_NODE":18.1461,"ARG_OF_PERICENTER":84.7355,"MEAN_ANOMALY":275.3786,"EPHEMERIS_TYPE":0,"CLASSIFICATION_TYPE":"U","NORAD_CAT_ID":63712,"ELEMENT_SET_NO":999,"REV_AT_EPOCH":2024,"BSTAR":0.0014806003,"MEAN_MOTION_DOT":0.00043753,"MEAN_MOTION_DDOT":0},{"OBJECT_NAME":"STARLINK-33773","OBJECT_ID":"2025-087S","EPOCH":"2025-09-01T13:09:07.027200","MEAN_MOTION":15.3021033,"ECCENTRICITY":0.00013031,"INCLINATION":53.1608,"RA_OF_ASC_NODE":17.9243,"ARG_OF_PERICENTER":91.0851,"MEAN_ANOMALY":269.0299,"EPHEMERIS_TYPE":0,"CLASSIFICATION_TYPE":"U","NORAD_CAT_ID":63713,"ELEMENT_SET_NO":999,"REV_AT_EPOCH":2024,"BSTAR":0.00092477429,"MEAN_MOTION_DOT":0.00027139,"MEAN_MOTION_DDOT":0},{"OBJECT_NAME":"STARLINK-33745","OBJECT_ID":"2025-087T","EPOCH":"2025-09-01T13:04:33.545280","MEAN_MOTION":15.30202529,"ECCENTRICITY":0.00012369,"INCLINATION":53.1601,"RA_OF_ASC_NODE":17.9044,"ARG_OF_PERICENTER":90.7447,"MEAN_ANOMALY":269.3695,"EPHEMERIS_TYPE":0,"CLASSIFICATION_TYPE":"U","NORAD_CAT_ID":63714,"ELEMENT_SET_NO":999,"REV_AT_EPOCH":2024,"BSTAR":0.0012553398,"MEAN_MOTION_DOT":0.00037009,"MEAN_MOTION_DDOT":0},{"OBJECT_NAME":"STARLINK-33728","OBJECT_ID":"2025-087U","EPOCH":"2025-09-01T13:15:11.627424","MEAN_MOTION":15.30219623,"ECCENTRICITY":0.00014486,"INCLINATION":53.1604,"RA_OF_ASC_NODE":17.9496,"ARG_OF_PERICENTER":105.1921,"MEAN_ANOMALY":254.924,"EPHEMERIS_TYPE":0,"CLASSIFICATION_TYPE":"U","NORAD_CAT_ID":63715,"ELEMENT_SET_NO":999,"REV_AT_EPOCH":2024,"BSTAR":0.00088222917,"MEAN_MOTION_DOT":0.00025877,"MEAN_MOTION_DDOT":0},{"OBJECT_NAME":"STARLINK-33749","OBJECT_ID":"2025-087V","EPOCH":"2025-09-01T14:06:51.815808","MEAN_MOTION":15.30210989,"ECCENTRICITY":0.00013938,"INCLINATION":53.1611,"RA_OF_ASC_NODE":18.1762,"ARG_OF_PERICENTER":29.423,"MEAN_ANOMALY":330.6849,"EPHEMERIS_TYPE":0,"CLASSIFICATION_TYPE":"U","NORAD_CAT_ID":63716,"ELEMENT_SET_NO":999,"REV_AT_EPOCH":2024,"BSTAR":0.0013325048,"MEAN_MOTION_DOT":0.00039328,"MEAN_MOTION_DDOT":0},{"OBJECT_NAME":"STARLINK-33725","OBJECT_ID":"2025-087W","EPOCH":"2025-09-01T13:19:45.344352","MEAN_MOTION":15.30206611,"ECCENTRICITY":7.177e-5,"INCLINATION":53.1607,"RA_OF_ASC_NODE":17.9725,"ARG_OF_PERICENTER":90.4793,"MEAN_ANOMALY":269.629,"EPHEMERIS_TYPE":0,"CLASSIFICATION_TYPE":"U","NORAD_CAT_ID":63717,"ELEMENT_SET_NO":999,"REV_AT_EPOCH":2024,"BSTAR":0.0015349496,"MEAN_MOTION_DOT":0.00045389,"MEAN_MOTION_DDOT":0},{"OBJECT_NAME":"STARLINK-33641","OBJECT_ID":"2025-087X","EPOCH":"2025-09-01T15:16:36.195456","MEAN_MOTION":15.30216177,"ECCENTRICITY":0.0001392,"INCLINATION":53.1624,"RA_OF_ASC_NODE":17.7667,"ARG_OF_PERICENTER":79.0021,"MEAN_ANOMALY":281.1137,"EPHEMERIS_TYPE":0,"CLASSIFICATION_TYPE":"U","NORAD_CAT_ID":63718,"ELEMENT_SET_NO":999,"REV_AT_EPOCH":2025,"BSTAR":0.0019570382,"MEAN_MOTION_DOT":0.00058086,"MEAN_MOTION_DDOT":0},{"OBJECT_NAME":"STARLINK-33727","OBJECT_ID":"2025-087Y","EPOCH":"2025-09-01T13:01:31.179936","MEAN_MOTION":15.30218137,"ECCENTRICITY":0.00010875,"INCLINATION":53.1594,"RA_OF_ASC_NODE":17.8931,"ARG_OF_PERICENTER":83.3922,"MEAN_ANOMALY":276.7202,"EPHEMERIS_TYPE":0,"CLASSIFICATION_TYPE":"U","NORAD_CAT_ID":63719,"ELEMENT_SET_NO":999,"REV_AT_EPOCH":2024,"BSTAR":0.0013257457,"MEAN_MOTION_DOT":0.00039135,"MEAN_MOTION_DDOT":0},{"OBJECT_NAME":"STARLINK-33757","OBJECT_ID":"2025-087Z","EPOCH":"2025-09-01T15:09:00.914112","MEAN_MOTION":15.30178538,"ECCENTRICITY":0.00010465,"INCLINATION":53.1618,"RA_OF_ASC_NODE":17.7314,"ARG_OF_PERICENTER":87.3587,"MEAN_ANOMALY":272.7534,"EPHEMERIS_TYPE":0,"CLASSIFICATION_TYPE":"U","NORAD_CAT_ID":63720,"ELEMENT_SET_NO":999,"REV_AT_EPOCH":2025,"BSTAR":0.00034981741,"MEAN_MOTION_DOT":0.00010009,"MEAN_MOTION_DDOT":0},{"OBJECT_NAME":"STARLINK-33774","OBJECT_ID":"2025-087AA","EPOCH":"2025-09-01T13:56:13.705152","MEAN_MOTION":15.30179279,"ECCENTRICITY":0.00015107,"INCLINATION":53.1619,"RA_OF_ASC_NODE":18.1311,"ARG_OF_PERICENTER":81.6663,"MEAN_ANOMALY":278.451,"EPHEMERIS_TYPE":0,"CLASSIFICATION_TYPE":"U","NORAD_CAT_ID":63721,"ELEMENT_SET_NO":999,"REV_AT_EPOCH":2024,"BSTAR":0.0016748497,"MEAN_MOTION_DOT":0.00049545,"MEAN_MOTION_DDOT":0},{"OBJECT_NAME":"STARLINK-33767","OBJECT_ID":"2025-087AB","EPOCH":"2025-09-01T13:16:42.840768","MEAN_MOTION":15.30207636,"ECCENTRICITY":8.625e-5,"INCLINATION":53.1614,"RA_OF_ASC_NODE":17.9552,"ARG_OF_PERICENTER":115.2524,"MEAN_ANOMALY":244.8566,"EPHEMERIS_TYPE":0,"CLASSIFICATION_TYPE":"U","NORAD_CAT_ID":63722,"ELEMENT_SET_NO":999,"REV_AT_EPOCH":2024,"BSTAR":0.0010474937,"MEAN_MOTION_DOT":0.000308,"MEAN_MOTION_DDOT":0},{"OBJECT_NAME":"STARLINK-33806","OBJECT_ID":"2025-087AC","EPOCH":"2025-09-01T13:25:50.054304","MEAN_MOTION":15.30207571,"ECCENTRICITY":0.00013336,"INCLINATION":53.1607,"RA_OF_ASC_NODE":17.9958,"ARG_OF_PERICENTER":78.3188,"MEAN_ANOMALY":281.7962,"EPHEMERIS_TYPE":0,"CLASSIFICATION_TYPE":"U","NORAD_CAT_ID":63723,"ELEMENT_SET_NO":999,"REV_AT_EPOCH":2024,"BSTAR":0.001171324,"MEAN_MOTION_DOT":0.00034501,"MEAN_MOTION_DDOT":0},{"OBJECT_NAME":"STARLINK-11677 [DTC]","OBJECT_ID":"2025-089A","EPOCH":"2025-09-01T14:29:48.411456","MEAN_MOTION":15.70911689,"ECCENTRICITY":8.071e-5,"INCLINATION":42.9995,"RA_OF_ASC_NODE":352.3144,"ARG_OF_PERICENTER":208.4587,"MEAN_ANOMALY":151.6237,"EPHEMERIS_TYPE":0,"CLASSIFICATION_TYPE":"U","NORAD_CAT_ID":63751,"ELEMENT_SET_NO":999,"REV_AT_EPOCH":2039,"BSTAR":0.0024564191,"MEAN_MOTION_DOT":0.00328524,"MEAN_MOTION_DDOT":0},{"OBJECT_NAME":"STARLINK-11702 [DTC]","OBJECT_ID":"2025-089B","EPOCH":"2025-09-01T13:51:34.732512","MEAN_MOTION":15.70887233,"ECCENTRICITY":9.994e-5,"INCLINATION":43.0001,"RA_OF_ASC_NODE":352.1,"ARG_OF_PERICENTER":249.788,"MEAN_ANOMALY":110.2881,"EPHEMERIS_TYPE":0,"CLASSIFICATION_TYPE":"U","NORAD_CAT_ID":63752,"ELEMENT_SET_NO":999,"REV_AT_EPOCH":2039,"BSTAR":0.0016458251,"MEAN_MOTION_DOT":0.00216762,"MEAN_MOTION_DDOT":0},{"OBJECT_NAME":"STARLINK-11706 [DTC]","OBJECT_ID":"2025-089C","EPOCH":"2025-09-01T13:28:38.588736","MEAN_MOTION":15.70909819,"ECCENTRICITY":0.00015223,"INCLINATION":42.9983,"RA_OF_ASC_NODE":351.972,"ARG_OF_PERICENTER":266.9267,"MEAN_ANOMALY":93.1426,"EPHEMERIS_TYPE":0,"CLASSIFICATION_TYPE":"U","NORAD_CAT_ID":63753,"ELEMENT_SET_NO":999,"REV_AT_EPOCH":2039,"BSTAR":0.0013217478,"MEAN_MOTION_DOT":0.00173238,"MEAN_MOTION_DDOT":0},{"OBJECT_NAME":"STARLINK-11662 [DTC]","OBJECT_ID":"2025-089D","EPOCH":"2025-09-01T14:06:52.291008","MEAN_MOTION":15.70921649,"ECCENTRICITY":7.403e-5,"INCLINATION":42.9996,"RA_OF_ASC_NODE":352.1853,"ARG_OF_PERICENTER":216.9869,"MEAN_ANOMALY":143.0947,"EPHEMERIS_TYPE":0,"CLASSIFICATION_TYPE":"U","NORAD_CAT_ID":63754,"ELEMENT_SET_NO":999,"REV_AT_EPOCH":2044,"BSTAR":0.0026056579,"MEAN_MOTION_DOT":0.00349556,"MEAN_MOTION_DDOT":0},{"OBJECT_NAME":"STARLINK-11681 [DTC]","OBJECT_ID":"2025-089E","EPOCH":"2025-09-01T14:22:09.844320","MEAN_MOTION":15.70992792,"ECCENTRICITY":0.00015738,"INCLINATION":42.9987,"RA_OF_ASC_NODE":352.2703,"ARG_OF_PERICENTER":252.9806,"MEAN_ANOMALY":107.0889,"EPHEMERIS_TYPE":0,"CLASSIFICATION_TYPE":"U","NORAD_CAT_ID":63755,"ELEMENT_SET_NO":999,"REV_AT_EPOCH":2039,"BSTAR":0.0023610049,"MEAN_MOTION_DOT":0.00316342,"MEAN_MOTION_DDOT":0},{"OBJECT_NAME":"STARLINK-11688 [DTC]","OBJECT_ID":"2025-089F","EPOCH":"2025-09-01T13:59:13.524288","MEAN_MOTION":15.70906091,"ECCENTRICITY":0.00011566,"INCLINATION":42.9997,"RA_OF_ASC_NODE":352.1416,"ARG_OF_PERICENTER":260.9442,"MEAN_ANOMALY":99.1295,"EPHEMERIS_TYPE":0,"CLASSIFICATION_TYPE":"U","NORAD_CAT_ID":63756,"ELEMENT_SET_NO":999,"REV_AT_EPOCH":2028,"BSTAR":0.0021898407,"MEAN_MOTION_DOT":0.00291426,"MEAN_MOTION_DDOT":0},{"OBJECT_NAME":"STARLINK-11676 [DTC]","OBJECT_ID":"2025-089G","EPOCH":"2025-09-01T08:38:40.454880","MEAN_MOTION":15.70846528,"ECCENTRICITY":0.0003953,"INCLINATION":43.0005,"RA_OF_ASC_NODE":353.0348,"ARG_OF_PERICENTER":285.3755,"MEAN_ANOMALY":74.6675,"EPHEMERIS_TYPE":0,"CLASSIFICATION_TYPE":"U","NORAD_CAT_ID":63757,"ELEMENT_SET_NO":999,"REV_AT_EPOCH":2025,"BSTAR":0.0024134249,"MEAN_MOTION_DOT":0.00321646,"MEAN_MOTION_DDOT":0},{"OBJECT_NAME":"STARLINK-11705 [DTC]","OBJECT_ID":"2025-089H","EPOCH":"2025-09-01T14:14:31.094880","MEAN_MOTION":15.70877717,"ECCENTRICITY":0.00012926,"INCLINATION":42.9989,"RA_OF_ASC_NODE":352.2257,"ARG_OF_PERICENTER":270.7662,"MEAN_ANOMALY":89.3057,"EPHEMERIS_TYPE":0,"CLASSIFICATION_TYPE":"U","NORAD_CAT_ID":63758,"ELEMENT_SET_NO":999,"REV_AT_EPOCH":2034,"BSTAR":0.0018048022,"MEAN_MOTION_DOT":0.0023827,"MEAN_MOTION_DDOT":0}]
